0 SL-8 R/B
1 10138U 77062B   13281.81389696  .00000016  00000-0  62809-6 0  7154
2 10138 082.9417 161.3365 0020964 176.5669 252.2849 13.73680399814477
0 SL-8 R/B
1 10138U 77062B   13283.14437818  .00000037  00000-0  22835-4 0  7169
2 10138 082.9415 160.3532 0021055 172.9023 351.8080 13.73680339814664
0 SL-8 R/B
1 10138U 77062B   13284.16566821  .00000045  00000-0  31772-4 0  7179
2 10138 082.9413 159.5984 0021122 170.1109 002.2907 13.73680238814802
0 SL-8 R/B
1 10138U 77062B   13285.25159354  .00000047  00000-0  33518-4 0  7182
2 10138 082.9411 158.7959 0021192 167.1726 332.3778 13.73680155814947
0 SL-8 R/B
1 10138U 77062B   13286.27110803  .00000053  00000-0  40106-4 0  7190
2 10138 082.9409 158.0424 0021262 164.2981 334.1673 13.73680163815082
0 SL-8 R/B
1 10138U 77062B   13287.29073491  .00000053  00000-0  40707-4 0  7203
2 10138 082.9407 157.2888 0021315 161.5908 336.3450 13.73680254815227
0 SL-8 R/B
1 10138U 77062B   13288.37982458  .00000053  00000-0  40367-4 0  7218
2 10138 082.9403 156.4838 0021387 158.6895 322.0346 13.73680432815370
0 SL-8 R/B
1 10138U 77062B   13290.77357581  .00000052  00000-0  39326-4 0  7221
2 10138 082.9399 154.7145 0021515 152.3649 279.3950 13.73681036815700
0 SL-8 R/B
1 10138U 77062B   13293.18726428  .00000079  00000-0  67836-4 0  7236
2 10138 082.9398 152.9301 0021646 145.8624 335.4787 13.73681697816030
0 SL-8 R/B
1 10138U 77062B   13295.23051966  .00000023  00000-0  78157-5 0  7241
2 10138 082.9396 151.4197 0021719 140.5172 359.5523 13.73681468816318
